<?xml version="1.0" encoding="UTF-8"?>
<kml xmlns="http://earth.google.com/kml/2.1">
<Document>
<Placemark><name>Route</name>
<LineString><tessellate>1</tessellate>
<coordinates>
90.363833,23.834145,0
90.363832,23.833879,0
90.363860,23.833543,0
90.363853,23.832228,0
90.363855,23.832081,0
90.363855,23.832054,0
90.363846,23.831827,0
90.363839,23.831643,0
90.363829,23.831451,0
90.364156,23.829362,0
90.364226,23.829363,0
90.365272,23.829379,0
90.365674,23.829381,0
90.365775,23.828889,0
90.365834,23.828585,0
90.365844,23.828526,0
90.365913,23.828166,0
90.365924,23.828111,0
90.365973,23.827826,0
90.366014,23.827609,0
90.366045,23.827463,0
90.366124,23.827066,0
90.366195,23.826668,0
90.366219,23.826538,0
90.366259,23.826316,0
90.366312,23.826014,0
90.366324,23.825941,0
90.366372,23.825521,0
90.366455,23.825139,0
90.366477,23.825042,0
90.366530,23.824769,0
90.366602,23.824409,0
90.366989,23.824474,0
90.367280,23.823090,0
90.367521,23.823127,0
90.367627,23.822628,0
90.367635,23.822597,0
90.367700,23.822276,0
90.367736,23.822085,0
90.367759,23.821970,0
90.367824,23.821637,0
90.367835,23.821579,0
90.367885,23.821331,0
90.367890,23.821306,0
90.367996,23.820722,0
90.368170,23.820746,0
90.368284,23.820304,0
90.368308,23.820232,0
90.368378,23.819930,0
90.368402,23.819824,0
90.368483,23.819519,0
90.368521,23.819371,0
90.368578,23.819133,0
90.368695,23.818714,0
90.368712,23.818660,0
90.368757,23.818512,0
90.368823,23.818284,0
90.368854,23.818174,0
90.368934,23.817886,0
90.368961,23.817784,0
90.369030,23.817519,0
90.369065,23.817389,0
90.369118,23.817196,0
90.369193,23.816903,0
90.369237,23.816707,0
90.369326,23.816366,0
90.369427,23.816001,0
90.369535,23.815615,0
90.369559,23.815527,0
90.369644,23.815230,0
90.369681,23.815110,0
90.369687,23.815090,0
90.369774,23.814765,0
90.370141,23.813471,0
90.370190,23.813487,0
90.370305,23.813110,0
90.370402,23.812728,0
90.370286,23.812694,0
90.370361,23.812331,0
90.370580,23.812383,0
90.370699,23.811937,0
90.370748,23.811732,0
90.370790,23.811547,0
90.370835,23.811347,0
90.370878,23.811187,0
90.370941,23.810966,0
90.370971,23.810825,0
90.371021,23.810591,0
90.371114,23.810140,0
90.371016,23.810117,0
90.371100,23.809795,0
90.371105,23.809774,0
90.371127,23.809690,0
90.371195,23.809427,0
90.371228,23.809318,0
90.371262,23.809188,0
90.371295,23.809072,0
90.371314,23.809006,0
90.371374,23.808817,0
90.371399,23.808726,0
90.371486,23.808455,0
90.371538,23.808284,0
90.371663,23.807874,0
90.371800,23.807420,0
90.371918,23.806880,0
90.372066,23.806846,0
90.372261,23.806801,0
90.373358,23.806556,0
90.374227,23.806362,0
</coordinates>
</LineString>
</Placemark>
</Document>
</kml>
