<?xml version="1.0" encoding="UTF-8"?>
<kml xmlns="http://earth.google.com/kml/2.1">
<Document>
<Placemark><name>Route</name>
<LineString><tessellate>1</tessellate>
<coordinates>
90.363833,23.834145,0
90.366345,23.815410,0
90.366421,23.815129,0
90.366474,23.814931,0
90.366576,23.814553,0
90.366615,23.814409,0
90.366742,23.813941,0
90.366890,23.813393,0
90.366904,23.813343,0
90.366978,23.813069,0
90.367005,23.812967,0
90.367041,23.812834,0
90.367136,23.812482,0
90.367263,23.812010,0
90.367406,23.811478,0
90.367482,23.811196,0
90.367541,23.810978,0
90.367669,23.810499,0
90.367680,23.810460,0
90.367821,23.809964,0
90.367855,23.809842,0
90.367976,23.809417,0
90.368009,23.809299,0
90.368123,23.808894,0
90.368180,23.808691,0
90.368237,23.808491,0
90.368265,23.808393,0
90.368481,23.807630,0
90.368626,23.807119,0
90.369038,23.807228,0
90.369139,23.807244,0
90.369563,23.807309,0
90.370141,23.807238,0
90.370798,23.807134,0
90.371443,23.806988,0
90.371918,23.806880,0
90.372066,23.806846,0
90.372261,23.806801,0
90.373358,23.806556,0
90.374227,23.806362,0
</coordinates>
</LineString>
</Placemark>
</Document>
</kml>
